<?xml version="1.0" encoding="UTF-8"?>
<ndm xmlns:xsi="http://www.w3.org/2001/XMLSchema-instance" xsi:noNamespaceSchemaLocation="https://sanaregistry.org/r/ndmxml_unqualified/ndmxml-2.0.0-master-2.0.xsd">
<omm id="CCSDS_OMM_VERS" version="2.0">
<header><CREATION_DATE/><ORIGINATOR/></header><body><segment><metadata><OBJECT_NAME>QIANFAN-65</OBJECT_NAME><OBJECT_ID>2025-016L</OBJECT_ID><CENTER_NAME>EARTH</CENTER_NAME><REF_FRAME>TEME</REF_FRAME><TIME_SYSTEM>UTC</TIME_SYSTEM><MEAN_ELEMENT_THEORY>SGP4</MEAN_ELEMENT_THEORY></metadata><data><meanElements><EPOCH>2025-10-19T07:02:06.902016</EPOCH><MEAN_MOTION>13.50972648</MEAN_MOTION><ECCENTRICITY>.00150991</ECCENTRICITY><INCLINATION>88.9723</INCLINATION><RA_OF_ASC_NODE>108.6922</RA_OF_ASC_NODE><ARG_OF_PERICENTER>135.7657</ARG_OF_PERICENTER><MEAN_ANOMALY>224.4704</MEAN_ANOMALY></meanElements><tleParameters><EPHEMERIS_TYPE>0</EPHEMERIS_TYPE><CLASSIFICATION_TYPE>U</CLASSIFICATION_TYPE><NORAD_CAT_ID>62795</NORAD_CAT_ID><ELEMENT_SET_NO>999</ELEMENT_SET_NO><REV_AT_EPOCH>3989</REV_AT_EPOCH><BSTAR>.14122364E-3</BSTAR><MEAN_MOTION_DOT>.103E-5</MEAN_MOTION_DOT><MEAN_MOTION_DDOT>0</MEAN_MOTION_DDOT></tleParameters></data></segment></body></omm>
<omm id="CCSDS_OMM_VERS" version="2.0">
<header><CREATION_DATE/><ORIGINATOR/></header><body><segment><metadata><OBJECT_NAME>QIANFAN-66</OBJECT_NAME><OBJECT_ID>2025-016M</OBJECT_ID><CENTER_NAME>EARTH</CENTER_NAME><REF_FRAME>TEME</REF_FRAME><TIME_SYSTEM>UTC</TIME_SYSTEM><MEAN_ELEMENT_THEORY>SGP4</MEAN_ELEMENT_THEORY></metadata><data><meanElements><EPOCH>2025-10-11T18:25:05.803392</EPOCH><MEAN_MOTION>13.50966984</MEAN_MOTION><ECCENTRICITY>.00157253</ECCENTRICITY><INCLINATION>88.9747</INCLINATION><RA_OF_ASC_NODE>109.4302</RA_OF_ASC_NODE><ARG_OF_PERICENTER>152.1511</ARG_OF_PERICENTER><MEAN_ANOMALY>208.0485</MEAN_ANOMALY></meanElements><tleParameters><EPHEMERIS_TYPE>0</EPHEMERIS_TYPE><CLASSIFICATION_TYPE>U</CLASSIFICATION_TYPE><NORAD_CAT_ID>62796</NORAD_CAT_ID><ELEMENT_SET_NO>999</ELEMENT_SET_NO><REV_AT_EPOCH>3892</REV_AT_EPOCH><BSTAR>.17597162E-3</BSTAR><MEAN_MOTION_DOT>.126E-5</MEAN_MOTION_DOT><MEAN_MOTION_DDOT>0</MEAN_MOTION_DDOT></tleParameters></data></segment></body></omm>
<omm id="CCSDS_OMM_VERS" version="2.0">
<header><CREATION_DATE/><ORIGINATOR/></header><body><segment><metadata><OBJECT_NAME>QIANFAN-67</OBJECT_NAME><OBJECT_ID>2025-016N</OBJECT_ID><CENTER_NAME>EARTH</CENTER_NAME><REF_FRAME>TEME</REF_FRAME><TIME_SYSTEM>UTC</TIME_SYSTEM><MEAN_ELEMENT_THEORY>SGP4</MEAN_ELEMENT_THEORY></metadata><data><meanElements><EPOCH>2025-10-19T07:49:30.192096</EPOCH><MEAN_MOTION>13.50969378</MEAN_MOTION><ECCENTRICITY>.00161081</ECCENTRICITY><INCLINATION>88.9732</INCLINATION><RA_OF_ASC_NODE>108.6792</RA_OF_ASC_NODE><ARG_OF_PERICENTER>138.2887</ARG_OF_PERICENTER><MEAN_ANOMALY>221.9496</MEAN_ANOMALY></meanElements><tleParameters><EPHEMERIS_TYPE>0</EPHEMERIS_TYPE><CLASSIFICATION_TYPE>U</CLASSIFICATION_TYPE><NORAD_CAT_ID>62797</NORAD_CAT_ID><ELEMENT_SET_NO>999</ELEMENT_SET_NO><REV_AT_EPOCH>3991</REV_AT_EPOCH><BSTAR>.11197269E-3</BSTAR><MEAN_MOTION_DOT>.85E-6</MEAN_MOTION_DOT><MEAN_MOTION_DDOT>0</MEAN_MOTION_DDOT></tleParameters></data></segment></body></omm>
<omm id="CCSDS_OMM_VERS" version="2.0">
<header><CREATION_DATE/><ORIGINATOR/></header><body><segment><metadata><OBJECT_NAME>QIANFAN-68</OBJECT_NAME><OBJECT_ID>2025-016P</OBJECT_ID><CENTER_NAME>EARTH</CENTER_NAME><REF_FRAME>TEME</REF_FRAME><TIME_SYSTEM>UTC</TIME_SYSTEM><MEAN_ELEMENT_THEORY>SGP4</MEAN_ELEMENT_THEORY></metadata><data><meanElements><EPOCH>2025-10-19T07:37:40.897344</EPOCH><MEAN_MOTION>13.50971774</MEAN_MOTION><ECCENTRICITY>.00161967</ECCENTRICITY><INCLINATION>88.9736</INCLINATION><RA_OF_ASC_NODE>108.7232</RA_OF_ASC_NODE><ARG_OF_PERICENTER>136.6821</ARG_OF_PERICENTER><MEAN_ANOMALY>223.5607</MEAN_ANOMALY></meanElements><tleParameters><EPHEMERIS_TYPE>0</EPHEMERIS_TYPE><CLASSIFICATION_TYPE>U</CLASSIFICATION_TYPE><NORAD_CAT_ID>62798</NORAD_CAT_ID><ELEMENT_SET_NO>999</ELEMENT_SET_NO><REV_AT_EPOCH>3989</REV_AT_EPOCH><BSTAR>.12521154E-3</BSTAR><MEAN_MOTION_DOT>.93E-6</MEAN_MOTION_DOT><MEAN_MOTION_DDOT>0</MEAN_MOTION_DDOT></tleParameters></data></segment></body></omm>
<omm id="CCSDS_OMM_VERS" version="2.0">
<header><CREATION_DATE/><ORIGINATOR/></header><body><segment><metadata><OBJECT_NAME>QIANFAN-69</OBJECT_NAME><OBJECT_ID>2025-016Q</OBJECT_ID><CENTER_NAME>EARTH</CENTER_NAME><REF_FRAME>TEME</REF_FRAME><TIME_SYSTEM>UTC</TIME_SYSTEM><MEAN_ELEMENT_THEORY>SGP4</MEAN_ELEMENT_THEORY></metadata><data><meanElements><EPOCH>2025-10-19T08:01:26.536224</EPOCH><MEAN_MOTION>13.50969172</MEAN_MOTION><ECCENTRICITY>.00169326</ECCENTRICITY><INCLINATION>88.9714</INCLINATION><RA_OF_ASC_NODE>108.6026</RA_OF_ASC_NODE><ARG_OF_PERICENTER>137.8470</ARG_OF_PERICENTER><MEAN_ANOMALY>222.3986</MEAN_ANOMALY></meanElements><tleParameters><EPHEMERIS_TYPE>0</EPHEMERIS_TYPE><CLASSIFICATION_TYPE>U</CLASSIFICATION_TYPE><NORAD_CAT_ID>62799</NORAD_CAT_ID><ELEMENT_SET_NO>999</ELEMENT_SET_NO><REV_AT_EPOCH>3993</REV_AT_EPOCH><BSTAR>.11908944E-3</BSTAR><MEAN_MOTION_DOT>.89E-6</MEAN_MOTION_DOT><MEAN_MOTION_DDOT>0</MEAN_MOTION_DDOT></tleParameters></data></segment></body></omm>
<omm id="CCSDS_OMM_VERS" version="2.0">
<header><CREATION_DATE/><ORIGINATOR/></header><body><segment><metadata><OBJECT_NAME>QIANFAN-70</OBJECT_NAME><OBJECT_ID>2025-016R</OBJECT_ID><CENTER_NAME>EARTH</CENTER_NAME><REF_FRAME>TEME</REF_FRAME><TIME_SYSTEM>UTC</TIME_SYSTEM><MEAN_ELEMENT_THEORY>SGP4</MEAN_ELEMENT_THEORY></metadata><data><meanElements><EPOCH>2025-10-19T06:38:16.882656</EPOCH><MEAN_MOTION>13.50971689</MEAN_MOTION><ECCENTRICITY>.00167094</ECCENTRICITY><INCLINATION>88.9736</INCLINATION><RA_OF_ASC_NODE>108.7356</RA_OF_ASC_NODE><ARG_OF_PERICENTER>128.9212</ARG_OF_PERICENTER><MEAN_ANOMALY>231.3431</MEAN_ANOMALY></meanElements><tleParameters><EPHEMERIS_TYPE>0</EPHEMERIS_TYPE><CLASSIFICATION_TYPE>U</CLASSIFICATION_TYPE><NORAD_CAT_ID>62800</NORAD_CAT_ID><ELEMENT_SET_NO>999</ELEMENT_SET_NO><REV_AT_EPOCH>3988</REV_AT_EPOCH><BSTAR>.14618035E-3</BSTAR><MEAN_MOTION_DOT>.107E-5</MEAN_MOTION_DOT><MEAN_MOTION_DDOT>0</MEAN_MOTION_DDOT></tleParameters></data></segment></body></omm>
<omm id="CCSDS_OMM_VERS" version="2.0">
<header><CREATION_DATE/><ORIGINATOR/></header><body><segment><metadata><OBJECT_NAME>QIANFAN-71</OBJECT_NAME><OBJECT_ID>2025-016S</OBJECT_ID><CENTER_NAME>EARTH</CENTER_NAME><REF_FRAME>TEME</REF_FRAME><TIME_SYSTEM>UTC</TIME_SYSTEM><MEAN_ELEMENT_THEORY>SGP4</MEAN_ELEMENT_THEORY></metadata><data><meanElements><EPOCH>2025-10-19T06:32:29.411232</EPOCH><MEAN_MOTION>13.50972911</MEAN_MOTION><ECCENTRICITY>.00167661</ECCENTRICITY><INCLINATION>88.9729</INCLINATION><RA_OF_ASC_NODE>108.7188</RA_OF_ASC_NODE><ARG_OF_PERICENTER>141.2651</ARG_OF_PERICENTER><MEAN_ANOMALY>218.9706</MEAN_ANOMALY></meanElements><tleParameters><EPHEMERIS_TYPE>0</EPHEMERIS_TYPE><CLASSIFICATION_TYPE>U</CLASSIFICATION_TYPE><NORAD_CAT_ID>62801</NORAD_CAT_ID><ELEMENT_SET_NO>999</ELEMENT_SET_NO><REV_AT_EPOCH>3988</REV_AT_EPOCH><BSTAR>.12681138E-3</BSTAR><MEAN_MOTION_DOT>.94E-6</MEAN_MOTION_DOT><MEAN_MOTION_DDOT>0</MEAN_MOTION_DDOT></tleParameters></data></segment></body></omm>
<omm id="CCSDS_OMM_VERS" version="2.0">
<header><CREATION_DATE/><ORIGINATOR/></header><body><segment><metadata><OBJECT_NAME>QIANFAN-72</OBJECT_NAME><OBJECT_ID>2025-016T</OBJECT_ID><CENTER_NAME>EARTH</CENTER_NAME><REF_FRAME>TEME</REF_FRAME><TIME_SYSTEM>UTC</TIME_SYSTEM><MEAN_ELEMENT_THEORY>SGP4</MEAN_ELEMENT_THEORY></metadata><data><meanElements><EPOCH>2025-10-01T06:58:51.347712</EPOCH><MEAN_MOTION>13.49486897</MEAN_MOTION><ECCENTRICITY>.001844</ECCENTRICITY><INCLINATION>88.9730</INCLINATION><RA_OF_ASC_NODE>110.6012</RA_OF_ASC_NODE><ARG_OF_PERICENTER>200.3911</ARG_OF_PERICENTER><MEAN_ANOMALY>159.6505</MEAN_ANOMALY></meanElements><tleParameters><EPHEMERIS_TYPE>0</EPHEMERIS_TYPE><CLASSIFICATION_TYPE>U</CLASSIFICATION_TYPE><NORAD_CAT_ID>62802</NORAD_CAT_ID><ELEMENT_SET_NO>999</ELEMENT_SET_NO><REV_AT_EPOCH>3744</REV_AT_EPOCH><BSTAR>.11481E-3</BSTAR><MEAN_MOTION_DOT>.84E-6</MEAN_MOTION_DOT><MEAN_MOTION_DDOT>0</MEAN_MOTION_DDOT></tleParameters></data></segment></body></omm>

</ndm>
