QIANFAN-65              
1 62795U 25016L   25292.29313544  .00000103  00000+0  14122-3 0  9990
2 62795  88.9723 108.6922 0015099 135.7657 224.4704 13.50972648 39891
QIANFAN-66              
1 62796U 25016M   25284.76742828  .00000126  00000+0  17597-3 0  9999
2 62796  88.9747 109.4302 0015725 152.1511 208.0485 13.50966984 38920
QIANFAN-67              
1 62797U 25016N   25292.32604389  .00000085  00000+0  11197-3 0  9994
2 62797  88.9732 108.6792 0016108 138.2887 221.9496 13.50969378 39912
QIANFAN-68              
1 62798U 25016P   25292.31783446  .00000093  00000+0  12521-3 0  9997
2 62798  88.9736 108.7232 0016196 136.6821 223.5607 13.50971774 39896
QIANFAN-69              
1 62799U 25016Q   25292.33433491  .00000089  00000+0  11909-3 0  9996
2 62799  88.9714 108.6026 0016932 137.8470 222.3986 13.50969172 39935
QIANFAN-70              
1 62800U 25016R   25292.27658429  .00000107  00000+0  14618-3 0  9993
2 62800  88.9736 108.7356 0016709 128.9212 231.3431 13.50971689 39881
QIANFAN-71              
1 62801U 25016S   25292.27256263  .00000094  00000+0  12681-3 0  9997
2 62801  88.9729 108.7188 0016766 141.2651 218.9706 13.50972911 39880
QIANFAN-72              
1 62802U 25016T   25274.29087208  .00000084  00000+0  11481-3 0  9997
2 62802  88.9730 110.6012 0018440 200.3911 159.6505 13.49486897 37447
